COSMOS 2251 DEB         
1 33944U 93036EZ  17345.93430333  .00000143  00000-0  57327-4 0  9998
2 33944  74.0421 257.9752 0120814 351.9495  91.3695 14.33006818461280
